KUIPER-00251            
1 67156U 25301Z   25361.42045741  .00023653  00000+0  69811-3 0  9996
2 67156  51.8671  54.3974 0008775 140.6365 219.5259 15.34829238  2818
KUIPER-00252            
1 67157U 25301AA  25361.42360998  .00035425  00000+0  10544-2 0  9999
2 67157  51.8665  54.4180 0009853 151.0414 209.1120 15.34337258  2628
KUIPER-00261            
1 67158U 25301AB  25361.41503119  .00024364  00000+0  70450-3 0  9996
2 67158  51.8701  54.3622 0005700 129.2940 230.8552 15.35475942  2622
KUIPER-00265            
1 67159U 25301AC  25361.47301448  .00032149  00000+0  89632-3 0  9996
2 67159  51.8744  53.9996 0001944  92.9101 267.2108 15.36477739  2662
